IRIDIUM 155             
1 43573U 18061E   21097.38415548  .00000094  00000-0  26366-4 0  9995
2 43573  86.3939 129.4477 0002784  89.5496 270.6019 14.34217175141497
IRIDIUM 154             
1 43574U 18061F   21097.01627753  .00000115  00000-0  33861-4 0  9991
2 43574  86.3943 129.6448 0002103  97.9901 262.1533 14.34216706141487
IRIDIUM 163             
1 43575U 18061G   21096.57864199  .00000110  00000-0  32045-4 0  9997
2 43575  86.3942 129.8009 0001914  81.1566 278.9846 14.34216128141393
IRIDIUM 156             
1 43576U 18061H   21097.11141728  .00000086  00000-0  23505-4 0  9998
2 43576  86.3941 129.5831 0002364  83.8394 276.3071 14.34219271141452
IRIDIUM 164             
1 43577U 18061J   21097.02262490  .00000092  00000-0  25624-4 0  9990
2 43577  86.3942 129.6318 0002057  94.4439 265.6992 14.34219554141493
IRIDIUM 159             
1 43578U 18061K   21097.06067376  .00000089  00000-0  24562-4 0  9997
2 43578  86.3940 129.5924 0002146  95.5448 264.5993 14.34219378141465
IRIDIUM 180             
1 43922U 19002A   21096.64155602  .00000097  00000-0  27570-4 0  9990
2 43922  86.3956  66.5772 0001246 101.1065 259.0271 14.34219774117017
IRIDIUM 176             
1 43923U 19002B   21096.63657877  .00000171  00000-0  23182-4 0  9999
2 43923  86.6090  66.6108 0002351  92.4419 267.7067 14.72255491120063
IRIDIUM 168             
1 43924U 19002C   21096.63523398  .00000093  00000-0  26131-4 0  9990
2 43924  86.3958  66.6035 0002017  92.8855 267.2572 14.34218662116990
IRIDIUM 173             
1 43925U 19002D   21096.83184390  .00000096  00000-0  27315-4 0  9996
2 43925  86.3955  66.4873 0002033  89.7864 270.3565 14.34219530117015
IRIDIUM 169             
1 43926U 19002E   21096.90996433  .00000071  00000-0  16612-4 0  9995
2 43926  86.4174  98.0736 0007228 101.9080 258.2929 14.38610481117458
IRIDIUM 172             
1 43927U 19002F   21096.75572413  .00000097  00000-0  27712-4 0  9998
2 43927  86.3956  66.5212 0001962  91.2356 268.9065 14.34218917117005
IRIDIUM 175             
1 43928U 19002G   21096.63038795  .00000171  00000-0  23280-4 0  9995
2 43928  86.6074  66.4473 0002173  73.0877 287.0579 14.72255967120058
IRIDIUM 171             
1 43929U 19002H   21096.66692335  .00000096  00000-0  27141-4 0  9991
2 43929  86.3964  66.6539 0002044  92.9995 267.1435 14.34219798116984
IRIDIUM 170             
1 43930U 19002J   21096.64273096  .00000171  00000-0  23156-4 0  9996
2 43930  86.6090  66.6147 0002211  87.0227 273.1243 14.72255585120078
IRIDIUM 167             
1 43931U 19002K   21096.66059049  .00000094  00000-0  26484-4 0  9990
2 43931  86.3956  66.5667 0001510  99.9673 260.1693 14.34217338116983
